{
"type": "FeatureCollection",
"name": "datasets",
"crs": { "type": "name", "properties": { "name": "urn:ogc:def:crs:OGC:1.3:CRS84" } },
"features": [
{ "type": "Feature", "properties": { "fid": 1, "title": "sseb" }, "geometry": { "type": "Polygon", "coordinates": [ [ [ -45.845427614142579, -23.862146765768749 ], [ -45.390450517956829, -23.862146765768749 ], [ -45.390450517956829, -23.641333953880775 ], [ -45.845427614142579, -23.641333953880775 ], [ -45.845427614142579, -23.862146765768749 ] ] ] } },
{ "type": "Feature", "properties": { "fid": 2, "title": "ib" }, "geometry": { "type": "Polygon", "coordinates": [ [ [ -45.471586388406408, -23.977174835242664 ], [ -45.000176710855392, -23.977174835242664 ], [ -45.000176710855392, -23.710145388304195 ], [ -45.471586388406408, -23.710145388304195 ], [ -45.471586388406408, -23.977174835242664 ] ] ] } },
{ "type": "Feature", "properties": { "fid": 3, "title": "rbc" }, "geometry": { "type": "Polygon", "coordinates": [ [ [ -45.763778225554603, -23.805916526447913 ], [ -45.57839816719337, -23.805916526447913 ], [ -45.57839816719337, -23.734794260314818 ], [ -45.763778225554603, -23.734794260314818 ], [ -45.763778225554603, -23.805916526447913 ] ] ] } },
{ "type": "Feature", "properties": { "fid": 4, "title": "lms1" }, "geometry": { "type": "Polygon", "coordinates": [ [ [ -43.079804048924807, -22.423190108827217 ], [ -42.423948603937347, -22.423190108827217 ], [ -42.423948603937347, -22.153736245301168 ], [ -43.079804048924807, -22.153736245301168 ], [ -43.079804048924807, -22.423190108827217 ] ] ] } },
{ "type": "Feature", "properties": { "fid": 5, "title": "lms2" }, "geometry": { "type": "Polygon", "coordinates": [ [ [ -50.459164808696045, -29.530418654029194 ], [ -50.366227542577818, -29.530418654029194 ], [ -50.366227542577818, -29.469448065036794 ], [ -50.459164808696045, -29.469448065036794 ], [ -50.459164808696045, -29.530418654029194 ] ] ] } },
{ "type": "Feature", "properties": { "fid": 6, "title": "viana" }, "geometry": { "type": "Polygon", "coordinates": [ [ [ -45.351669482097584, -23.759005656402227 ], [ -45.350855696305409, -23.759005656402227 ], [ -45.350855696305409, -23.757918984255795 ], [ -45.351669482097584, -23.757918984255795 ], [ -45.351669482097584, -23.759005656402227 ] ] ] } },
{ "type": "Feature", "properties": { "fid": 7, "title": "diab" }, "geometry": { "type": "Polygon", "coordinates": [ [ [ -48.410334708672721, -24.656377529718167 ], [ -48.330184113422789, -24.656377529718167 ], [ -48.330184113422789, -24.619109062260797 ], [ -48.410334708672721, -24.619109062260797 ], [ -48.410334708672721, -24.656377529718167 ] ] ] } },
{ "type": "Feature", "properties": { "fid": 8, "title": "sp" }, "geometry": { "type": "Polygon", "coordinates": [ [ [ -46.876090142561445, -24.020630492845473 ], [ -46.347158587715008, -24.020630492845473 ], [ -46.347158587715008, -23.338258887848966 ], [ -46.876090142561445, -23.338258887848966 ], [ -46.876090142561445, -24.020630492845473 ] ] ] } },
{ "type": "Feature", "properties": { "fid": 9, "title": "garcia" }, "geometry": { "type": "Polygon", "coordinates": [ [ [ -47.119088866909117, -22.905045440122432 ], [ -47.112331683107435, -22.905045440122432 ], [ -47.112331683107435, -22.902654436641342 ], [ -47.119088866909117, -22.902654436641342 ], [ -47.119088866909117, -22.905045440122432 ] ] ] } },
{ "type": "Feature", "properties": { "fid": 10, "title": "paz" }, "geometry": { "type": "Polygon", "coordinates": [ [ [ -46.691107905092757, -23.450558084397496 ], [ -46.686499159253692, -23.450558084397496 ], [ -46.686499159253692, -23.445602816312196 ], [ -46.691107905092757, -23.445602816312196 ], [ -46.691107905092757, -23.450558084397496 ] ] ] } },
{ "type": "Feature", "properties": { "fid": 11, "title": "stamad" }, "geometry": { "type": "Polygon", "coordinates": [ [ [ -46.510569815416943, -23.616802131524551 ], [ -46.508100844457395, -23.616802131524551 ], [ -46.508100844457395, -23.612721832048123 ], [ -46.510569815416943, -23.612721832048123 ], [ -46.510569815416943, -23.616802131524551 ] ] ] } },
{ "type": "Feature", "properties": { "fid": 12, "title": "lagoiha" }, "geometry": { "type": "Polygon", "coordinates": [ [ [ -45.008788608290324, -23.044188559950246 ], [ -45.007050221700332, -23.044188559950246 ], [ -45.007050221700332, -23.041924614632098 ], [ -45.008788608290324, -23.041924614632098 ], [ -45.008788608290324, -23.044188559950246 ] ] ] } },
{ "type": "Feature", "properties": { "fid": 13, "title": "ttg" }, "geometry": { "type": "Polygon", "coordinates": [ [ [ -45.515746321289932, -23.842629234746116 ], [ -45.494911671279652, -23.842629234746116 ], [ -45.494911671279652, -23.834139439713233 ], [ -45.515746321289932, -23.834139439713233 ], [ -45.515746321289932, -23.842629234746116 ] ] ] } },
{ "type": "Feature", "properties": { "fid": 14, "title": "garosfm" }, "geometry": { "type": "Polygon", "coordinates": [ [ [ -48.643196213509803, -28.012244778981298 ], [ -48.628642279257548, -28.012244778981298 ], [ -48.628642279257548, -27.993012794404798 ], [ -48.643196213509803, -27.993012794404798 ], [ -48.643196213509803, -28.012244778981298 ] ] ] } },
{ "type": "Feature", "properties": { "fid": 15, "title": "garolidar" }, "geometry": { "type": "Polygon", "coordinates": [ [ [ -48.646249940794391, -28.01334931866009 ], [ -48.625198714425132, -28.01334931866009 ], [ -48.625198714425132, -27.980343074795542 ], [ -48.646249940794391, -27.980343074795542 ], [ -48.646249940794391, -28.01334931866009 ] ] ] } },
{ "type": "Feature", "properties": { "fid": 16, "title": "vilanova" }, "geometry": { "type": "Polygon", "coordinates": [ [ [ -48.727596037845572, -28.323659989051706 ], [ -48.694329902296346, -28.323659989051706 ], [ -48.694329902296346, -28.281557536313183 ], [ -48.727596037845572, -28.281557536313183 ], [ -48.727596037845572, -28.323659989051706 ] ] ] } },
{ "type": "Feature", "properties": { "fid": 17, "title": "itaoca" }, "geometry": { "type": "Polygon", "coordinates": [ [ [ -48.862609767554233, -24.581349688259667 ], [ -48.809591864059144, -24.581349688259667 ], [ -48.809591864059144, -24.551072307129179 ], [ -48.862609767554233, -24.551072307129179 ], [ -48.862609767554233, -24.581349688259667 ] ] ] } },
{ "type": "Feature", "properties": { "fid": 18, "title": "perua" }, "geometry": { "type": "Polygon", "coordinates": [ [ [ -44.321392430756376, -15.186915048371468 ], [ -44.168056337334079, -15.186915048371468 ], [ -44.168056337334079, -15.044494405615906 ], [ -44.321392430756376, -15.044494405615906 ], [ -44.321392430756376, -15.186915048371468 ] ] ] } },
{ "type": "Feature", "properties": { "fid": 19, "title": "vgx" }, "geometry": { "type": "Polygon", "coordinates": [ [ [ -52.657158296780381, -3.900339004487141 ], [ -51.659174231022213, -3.900339004487141 ], [ -51.659174231022213, -2.511477846317506 ], [ -52.657158296780381, -2.511477846317506 ], [ -52.657158296780381, -3.900339004487141 ] ] ] } }
]
}
