{
"type": "FeatureCollection",
"name": "grants",
"crs": { "type": "name", "properties": { "name": "urn:ogc:def:crs:OGC:1.3:CRS84" } },
"features": [
{ "type": "Feature", "properties": { "fid": 1, "area": "garopaba" }, "geometry": { "type": "Polygon", "coordinates": [ [ [ -48.643173551729653, -28.011378456078166 ], [ -48.628436991147943, -28.011378456078166 ], [ -48.628436991147943, -27.982614873014835 ], [ -48.643173551729653, -27.982614873014835 ], [ -48.643173551729653, -28.011378456078166 ] ] ] } },
{ "type": "Feature", "properties": { "fid": 2, "area": "diabo" }, "geometry": { "type": "Polygon", "coordinates": [ [ [ -48.414538542976572, -24.66284982784634 ], [ -48.347951120979062, -24.66284982784634 ], [ -48.347951120979062, -24.621369138731662 ], [ -48.414538542976572, -24.621369138731662 ], [ -48.414538542976572, -24.66284982784634 ] ] ] } },
{ "type": "Feature", "properties": { "fid": 3, "area": "itaoca" }, "geometry": { "type": "Polygon", "coordinates": [ [ [ -48.890584030320085, -24.600410474722725 ], [ -48.790047939108675, -24.600410474722725 ], [ -48.790047939108675, -24.545503141546448 ], [ -48.890584030320085, -24.545503141546448 ], [ -48.890584030320085, -24.600410474722725 ] ] ] } },
{ "type": "Feature", "properties": { "fid": 4, "area": "ceu paz" }, "geometry": { "type": "Polygon", "coordinates": [ [ [ -46.693062655062526, -23.450849587931852 ], [ -46.683729499991514, -23.450849587931852 ], [ -46.683729499991514, -23.444982253601218 ], [ -46.693062655062526, -23.444982253601218 ], [ -46.693062655062526, -23.450849587931852 ] ] ] } },
{ "type": "Feature", "properties": { "fid": 5, "area": "luiz ms" }, "geometry": { "type": "Polygon", "coordinates": [ [ [ -46.799193181319069, -23.459391335048785 ], [ -46.787403932817767, -23.459391335048785 ], [ -46.787403932817767, -23.448802843387529 ], [ -46.799193181319069, -23.448802843387529 ], [ -46.799193181319069, -23.459391335048785 ] ] ] } },
{ "type": "Feature", "properties": { "fid": 6, "area": "urban 2" }, "geometry": { "type": "Polygon", "coordinates": [ [ [ -46.511161646309318, -23.61664271719626 ], [ -46.507798162813913, -23.61664271719626 ], [ -46.507798162813913, -23.612842594890765 ], [ -46.511161646309318, -23.612842594890765 ], [ -46.511161646309318, -23.61664271719626 ] ] ] } },
{ "type": "Feature", "properties": { "fid": 8, "area": "jd garcia" }, "geometry": { "type": "Polygon", "coordinates": [ [ [ -47.119240917601665, -22.906374608481983 ], [ -47.110726460400635, -22.906374608481983 ], [ -47.110726460400635, -22.902212894601522 ], [ -47.119240917601665, -22.902212894601522 ], [ -47.119240917601665, -22.906374608481983 ] ] ] } },
{ "type": "Feature", "properties": { "fid": 9, "area": "diques" }, "geometry": { "type": "Polygon", "coordinates": [ [ [ -47.458604805344635, -22.541753893210522 ], [ -47.449435389883547, -22.541753893210522 ], [ -47.449435389883547, -22.536459647379893 ], [ -47.458604805344635, -22.536459647379893 ], [ -47.458604805344635, -22.541753893210522 ] ] ] } },
{ "type": "Feature", "properties": { "fid": 11, "area": "rafael1" }, "geometry": { "type": "Polygon", "coordinates": [ [ [ -46.992097147498654, -22.741147745157477 ], [ -46.989204415258278, -22.741147745157477 ], [ -46.989204415258278, -22.737217995686986 ], [ -46.992097147498654, -22.737217995686986 ], [ -46.992097147498654, -22.741147745157477 ] ] ] } },
{ "type": "Feature", "properties": { "fid": 12, "area": "ttg" }, "geometry": { "type": "Polygon", "coordinates": [ [ [ -45.516380697572679, -23.843960987000017 ], [ -45.488517682049547, -23.843960987000017 ], [ -45.488517682049547, -23.825840475437975 ], [ -45.516380697572679, -23.825840475437975 ], [ -45.516380697572679, -23.843960987000017 ] ] ] } },
{ "type": "Feature", "properties": { "fid": 15, "area": "guaruja" }, "geometry": { "type": "Polygon", "coordinates": [ [ [ -46.259985726339238, -24.003115841514319 ], [ -46.180226366260165, -24.003115841514319 ], [ -46.180226366260165, -23.971095660460676 ], [ -46.259985726339238, -23.971095660460676 ], [ -46.259985726339238, -24.003115841514319 ] ] ] } },
{ "type": "Feature", "properties": { "fid": 18, "area": "banzae" }, "geometry": { "type": "Polygon", "coordinates": [ [ [ -38.73369674656383, -10.230162561114852 ], [ -38.666891005116355, -10.230162561114852 ], [ -38.666891005116355, -10.162483542047195 ], [ -38.73369674656383, -10.162483542047195 ], [ -38.73369674656383, -10.230162561114852 ] ] ] } },
{ "type": "Feature", "properties": { "fid": 19, "area": "vgx" }, "geometry": { "type": "Polygon", "coordinates": [ [ [ -52.925040995146389, -4.249374923041386 ], [ -51.336840014256858, -4.249374923041386 ], [ -51.336840014256858, -2.418984936274469 ], [ -52.925040995146389, -2.418984936274469 ], [ -52.925040995146389, -4.249374923041386 ] ] ] } },
{ "type": "Feature", "properties": { "fid": 20, "area": "lateritas" }, "geometry": { "type": "Polygon", "coordinates": [ [ [ -62.543321202379708, -12.002916221948452 ], [ -61.483744301609988, -12.002916221948452 ], [ -61.483744301609988, -11.490593324910495 ], [ -62.543321202379708, -11.490593324910495 ], [ -62.543321202379708, -12.002916221948452 ] ] ] } },
{ "type": "Feature", "properties": { "fid": 21, "area": "peruacu" }, "geometry": { "type": "Polygon", "coordinates": [ [ [ -44.333444229970567, -15.197657014749765 ], [ -44.16286399263133, -15.197657014749765 ], [ -44.16286399263133, -15.041049220052114 ], [ -44.333444229970567, -15.041049220052114 ], [ -44.333444229970567, -15.197657014749765 ] ] ] } },
{ "type": "Feature", "properties": { "fid": 23, "area": "vau novo" }, "geometry": { "type": "Polygon", "coordinates": [ [ [ -46.96023843183832, -23.428185303475821 ], [ -46.956399648737943, -23.428185303475821 ], [ -46.956399648737943, -23.424000848025294 ], [ -46.96023843183832, -23.424000848025294 ], [ -46.96023843183832, -23.428185303475821 ] ] ] } },
{ "type": "Feature", "properties": { "fid": 26, "area": "dl lucas 3" }, "geometry": { "type": "Polygon", "coordinates": [ [ [ -50.463813940501815, -29.535043476723747 ], [ -50.357810364884372, -29.535043476723747 ], [ -50.357810364884372, -29.461119930529289 ], [ -50.463813940501815, -29.461119930529289 ], [ -50.463813940501815, -29.535043476723747 ] ] ] } },
{ "type": "Feature", "properties": { "fid": 27, "area": "lucas 1 e 2" }, "geometry": { "type": "Polygon", "coordinates": [ [ [ -43.111117754144757, -22.427832351480614 ], [ -42.374747153849547, -22.427832351480614 ], [ -42.374747153849547, -22.139420533018182 ], [ -43.111117754144757, -22.139420533018182 ], [ -43.111117754144757, -22.427832351480614 ] ] ] } },
{ "type": "Feature", "properties": { "fid": 28, "area": "colehlo24" }, "geometry": { "type": "Polygon", "coordinates": [ [ [ -45.769941600174604, -23.80699312158718 ], [ -45.576863475518842, -23.80699312158718 ], [ -45.576863475518842, -23.732698587799213 ], [ -45.769941600174604, -23.732698587799213 ], [ -45.769941600174604, -23.80699312158718 ] ] ] } },
{ "type": "Feature", "properties": { "fid": 29, "area": "caragua" }, "geometry": { "type": "Polygon", "coordinates": [ [ [ -45.585410634288486, -23.727000481941722 ], [ -45.296998815826051, -23.727000481941722 ], [ -45.296998815826051, -23.533264883563444 ], [ -45.585410634288486, -23.533264883563444 ], [ -45.585410634288486, -23.727000481941722 ] ] ] } },
{ "type": "Feature", "properties": { "fid": 30, "area": "sseb" }, "geometry": { "type": "Polygon", "coordinates": [ [ [ -45.854536556009343, -23.859371863691013 ], [ -45.37545735002341, -23.859371863691013 ], [ -45.37545735002341, -23.640213946904403 ], [ -45.854536556009343, -23.640213946904403 ], [ -45.854536556009343, -23.859371863691013 ] ] ] } },
{ "type": "Feature", "properties": { "fid": 31, "area": "ilhabela" }, "geometry": { "type": "Polygon", "coordinates": [ [ [ -45.477438833938159, -23.983853560443805 ], [ -44.984187415981459, -23.983853560443805 ], [ -44.984187415981459, -23.698071636961252 ], [ -45.477438833938159, -23.698071636961252 ], [ -45.477438833938159, -23.983853560443805 ] ] ] } },
{ "type": "Feature", "properties": { "fid": 33, "area": "guilherme ms" }, "geometry": { "type": "Polygon", "coordinates": [ [ [ -48.801187799399209, -24.672739945420727 ], [ -48.329559962567849, -24.672739945420727 ], [ -48.329559962567849, -24.496829190884799 ], [ -48.801187799399209, -24.496829190884799 ], [ -48.801187799399209, -24.672739945420727 ] ] ] } },
{ "type": "Feature", "properties": { "fid": 35, "area": "rafael 2" }, "geometry": { "type": "Polygon", "coordinates": [ [ [ -64.879075239088834, -9.583137014323905 ], [ -64.846737270918595, -9.583137014323905 ], [ -64.846737270918595, -9.555864029167711 ], [ -64.879075239088834, -9.555864029167711 ], [ -64.879075239088834, -9.583137014323905 ] ] ] } },
{ "type": "Feature", "properties": { "fid": 36, "area": "baleia" }, "geometry": { "type": "Polygon", "coordinates": [ [ [ -45.66760308774834, -23.786695423708213 ], [ -45.655894387585306, -23.786695423708213 ], [ -45.655894387585306, -23.774777299572488 ], [ -45.66760308774834, -23.774777299572488 ], [ -45.66760308774834, -23.786695423708213 ] ] ] } },
{ "type": "Feature", "properties": { "fid": 41, "area": "cunha2" }, "geometry": { "type": "Polygon", "coordinates": [ [ [ -45.035984882137896, -23.072280265277808 ], [ -45.003833352747172, -23.072280265277808 ], [ -45.003833352747172, -23.039129677059137 ], [ -45.035984882137896, -23.039129677059137 ], [ -45.035984882137896, -23.072280265277808 ] ] ] } },
{ "type": "Feature", "properties": { "fid": 42, "area": "vivian" }, "geometry": { "type": "Polygon", "coordinates": [ [ [ -49.137953538442787, -24.721400023690748 ], [ -48.46954612946373, -24.721400023690748 ], [ -48.46954612946373, -24.208879577599671 ], [ -49.137953538442787, -24.208879577599671 ], [ -49.137953538442787, -24.721400023690748 ] ] ] } },
{ "type": "Feature", "properties": { "fid": 44, "area": "usp" }, "geometry": { "type": "Polygon", "coordinates": [ [ [ -46.74509262892834, -23.573692503503089 ], [ -46.712136945032761, -23.573692503503089 ], [ -46.712136945032761, -23.547737767998903 ], [ -46.74509262892834, -23.547737767998903 ], [ -46.74509262892834, -23.573692503503089 ] ] ] } }
]
}
