{
"type": "FeatureCollection",
"name": "areas_datasets",
"crs": { "type": "name", "properties": { "name": "urn:ogc:def:crs:OGC:1.3:CRS84" } },
"features": [
{ "type": "Feature", "properties": { "fid": 2, "Title": "Lidar - São Sebastião DTM", "type": "dataset", "short_title": "São Sebastião", "kind": "lidar DTM", "url": "https://doi.org/10.5281/zenodo.16903678" }, "geometry": { "type": "Polygon", "coordinates": [ [ [ -45.845427614142579, -23.862146765768749 ], [ -45.390450517956829, -23.862146765768749 ], [ -45.390450517956829, -23.641333953880775 ], [ -45.845427614142579, -23.641333953880775 ], [ -45.845427614142579, -23.862146765768749 ] ] ] } },
{ "type": "Feature", "properties": { "fid": 3, "Title": "Lidar - Ilhabela DTM", "type": "dataset", "short_title": "Ilhabela", "kind": "lidar DTM", "url": "https://doi.org/10.5281/zenodo.16903853" }, "geometry": { "type": "Polygon", "coordinates": [ [ [ -45.471586388406408, -23.977174835242664 ], [ -45.000176710855392, -23.977174835242664 ], [ -45.000176710855392, -23.710145388304195 ], [ -45.471586388406408, -23.710145388304195 ], [ -45.471586388406408, -23.977174835242664 ] ] ] } },
{ "type": "Feature", "properties": { "fid": 4, "Title": "São Sebastião - Landslide inventory", "type": "dataset", "short_title": "São Sebastião", "kind": "landslide inventory", "url": "https://doi.org/10.5281/zenodo.11120078" }, "geometry": { "type": "Polygon", "coordinates": [ [ [ -45.763778225554603, -23.805916526447913 ], [ -45.57839816719337, -23.805916526447913 ], [ -45.57839816719337, -23.734794260314818 ], [ -45.763778225554603, -23.734794260314818 ], [ -45.763778225554603, -23.805916526447913 ] ] ] } },
{ "type": "Feature", "properties": { "fid": 24, "Title": "Nova Friburgo - Landslide inventory", "type": "dataset", "short_title": "Nova Friburgo ", "kind": "landslide inventory", "url": "https://github.com/SPAMLab/data_sharing" }, "geometry": { "type": "Polygon", "coordinates": [ [ [ -42.722215697938623, -22.351559889742155 ], [ -42.419249150664065, -22.351559889742155 ], [ -42.419249150664065, -22.148040377044484 ], [ -42.722215697938623, -22.148040377044484 ], [ -42.722215697938623, -22.351559889742155 ] ] ] } },
{ "type": "Feature", "properties": { "fid": 5, "Title": "Rolante - Landslide inventory", "type": "dataset", "short_title": "Rolante ", "kind": "landslide inventory", "url": "https://github.com/SPAMLab/data_sharing" }, "geometry": { "type": "Polygon", "coordinates": [ [ [ -50.459164808696045, -29.530418654029194 ], [ -50.366227542577818, -29.530418654029194 ], [ -50.366227542577818, -29.469448065036794 ], [ -50.459164808696045, -29.469448065036794 ], [ -50.459164808696045, -29.530418654029194 ] ] ] } },
{ "type": "Feature", "properties": { "fid": 6, "Title": "SfM-MVS - Viana beach", "type": "dataset", "short_title": "Viana beach", "kind": "UAV images" }, "geometry": { "type": "Polygon", "coordinates": [ [ [ -45.351669482097584, -23.759005656402227 ], [ -45.350855696305409, -23.759005656402227 ], [ -45.350855696305409, -23.757918984255795 ], [ -45.351669482097584, -23.757918984255795 ], [ -45.351669482097584, -23.759005656402227 ] ] ] } },
{ "type": "Feature", "properties": { "fid": 7, "Title": "Lidar - Devil's Cave", "type": "dataset", "short_title": "Devil's Cave ", "kind": "lidar point cloud (terrestrial)", "url": "https://doi.org/10.5281/zenodo.14860981" }, "geometry": { "type": "Polygon", "coordinates": [ [ [ -48.410334708672721, -24.656377529718167 ], [ -48.330184113422789, -24.656377529718167 ], [ -48.330184113422789, -24.619109062260797 ], [ -48.410334708672721, -24.619109062260797 ], [ -48.410334708672721, -24.656377529718167 ] ] ] } },
{ "type": "Feature", "properties": { "fid": 8, "Title": "Lidar - São Paulo DTM+DSM", "type": "dataset", "short_title": "São Paulo city", "kind": "lidar DTM", "url": "https://doi.org/10.34740/KAGGLE/DS/1915612" }, "geometry": { "type": "Polygon", "coordinates": [ [ [ -46.876090142561445, -24.020630492845473 ], [ -46.347158587715008, -24.020630492845473 ], [ -46.347158587715008, -23.338258887848966 ], [ -46.876090142561445, -23.338258887848966 ], [ -46.876090142561445, -24.020630492845473 ] ] ] } },
{ "type": "Feature", "properties": { "fid": 9, "Title": "SfM-MVS - Jardim Garcia Quarry", "type": "dataset", "short_title": "Jardim Garcia quarry", "kind": "UAV images", "url": "https://doi.org/10.5281/zenodo.7220755" }, "geometry": { "type": "Polygon", "coordinates": [ [ [ -47.119088866909117, -22.905045440122432 ], [ -47.112331683107435, -22.905045440122432 ], [ -47.112331683107435, -22.902654436641342 ], [ -47.119088866909117, -22.902654436641342 ], [ -47.119088866909117, -22.905045440122432 ] ] ] } },
{ "type": "Feature", "properties": { "fid": 10, "Title": "SfM-MVS - CEU Paz", "type": "dataset", "short_title": "CEU Paz", "kind": "UAV images" }, "geometry": { "type": "Polygon", "coordinates": [ [ [ -46.691107905092757, -23.450558084397496 ], [ -46.686499159253692, -23.450558084397496 ], [ -46.686499159253692, -23.445602816312196 ], [ -46.691107905092757, -23.445602816312196 ], [ -46.691107905092757, -23.450558084397496 ] ] ] } },
{ "type": "Feature", "properties": { "fid": 11, "Title": "SfM-MVS - Santa Madalena ", "type": "dataset", "short_title": "Santa Madalena", "kind": "UAV images" }, "geometry": { "type": "Polygon", "coordinates": [ [ [ -46.510569815416943, -23.616802131524551 ], [ -46.508100844457395, -23.616802131524551 ], [ -46.508100844457395, -23.612721832048123 ], [ -46.510569815416943, -23.612721832048123 ], [ -46.510569815416943, -23.616802131524551 ] ] ] } },
{ "type": "Feature", "properties": { "fid": 12, "Title": "SfM-MVS -  Lagoinha Landslide", "type": "dataset", "short_title": "Cunha SfM", "kind": "SfM-MVS point cloud", "url": "https://doi.org/10.5069/G94F1NWJ" }, "geometry": { "type": "Polygon", "coordinates": [ [ [ -45.008788608290324, -23.044188559950246 ], [ -45.007050221700332, -23.044188559950246 ], [ -45.007050221700332, -23.041924614632098 ], [ -45.008788608290324, -23.041924614632098 ], [ -45.008788608290324, -23.044188559950246 ] ] ] } },
{ "type": "Feature", "properties": { "fid": 13, "Title": "SfM-MVS - Toque-Toque Grande", "type": "dataset", "short_title": "Toque-Toque Grande", "kind": "UAV images" }, "geometry": { "type": "Polygon", "coordinates": [ [ [ -45.515746321289932, -23.842629234746116 ], [ -45.494911671279652, -23.842629234746116 ], [ -45.494911671279652, -23.834139439713233 ], [ -45.515746321289932, -23.834139439713233 ], [ -45.515746321289932, -23.842629234746116 ] ] ] } },
{ "type": "Feature", "properties": { "fid": 14, "Title": "SfM-MVS - Gropaba dunes DTM", "type": "dataset", "short_title": "Garopaba", "kind": "UAV images" }, "geometry": { "type": "Polygon", "coordinates": [ [ [ -48.643196213509803, -28.012244778981298 ], [ -48.628642279257548, -28.012244778981298 ], [ -48.628642279257548, -27.993012794404798 ], [ -48.643196213509803, -27.993012794404798 ], [ -48.643196213509803, -28.012244778981298 ] ] ] } },
{ "type": "Feature", "properties": { "fid": 19, "Title": "Lidar - Garopaba dunes TLS", "type": "dataset", "short_title": "Garopaba", "kind": "lidar point cloud (terrestrial)", "url": "https://doi.org/10.5069/G9CN7228", "description": null, "biblio": null, "spammers": null }, "geometry": { "type": "Polygon", "coordinates": [ [ [ -48.639166614843361, -28.005800908665275 ], [ -48.632770139482886, -28.005800908665275 ], [ -48.632770139482886, -28.000867456975133 ], [ -48.639166614843361, -28.000867456975133 ], [ -48.639166614843361, -28.005800908665275 ] ] ] } },
{ "type": "Feature", "properties": { "fid": 15, "Title": "Vila Nova dune field", "type": "dataset", "short_title": "Garopaba and Vila Nova ", "kind": "lidar point cloud (airborne)", "url": "https://doi.org/10.5069/G9DN430Z" }, "geometry": { "type": "Polygon", "coordinates": [ [ [ -48.727596037845572, -28.323659989051706 ], [ -48.694329902296346, -28.323659989051706 ], [ -48.694329902296346, -28.281557536313183 ], [ -48.727596037845572, -28.281557536313183 ], [ -48.727596037845572, -28.323659989051706 ] ] ] } },
{ "type": "Feature", "properties": { "fid": 16, "Title": "Itaoca - Landslides Inventory", "type": "dataset", "short_title": "Itaoca", "kind": "landslide inventory", "url": "https://github.com/SPAMLab/data_sharing" }, "geometry": { "type": "Polygon", "coordinates": [ [ [ -48.862609767554233, -24.581349688259667 ], [ -48.809591864059144, -24.581349688259667 ], [ -48.809591864059144, -24.551072307129179 ], [ -48.862609767554233, -24.551072307129179 ], [ -48.862609767554233, -24.581349688259667 ] ] ] } },
{ "type": "Feature", "properties": { "fid": 17, "Title": "SfM-MVS - Peruaçu caves and Archaeology", "type": "dataset", "short_title": "Peruaçu", "kind": "UAV/handheld images, 3D models" }, "geometry": { "type": "Polygon", "coordinates": [ [ [ -44.321392430756376, -15.186915048371468 ], [ -44.168056337334079, -15.186915048371468 ], [ -44.168056337334079, -15.044494405615906 ], [ -44.321392430756376, -15.044494405615906 ], [ -44.321392430756376, -15.186915048371468 ] ] ] } },
{ "type": "Feature", "properties": { "fid": 18, "Title": "SfM-MVS - Xingu River", "type": "dataset", "short_title": "Xingu River", "kind": "3D models" }, "geometry": { "type": "Polygon", "coordinates": [ [ [ -52.657158296780381, -3.900339004487141 ], [ -51.659174231022213, -3.900339004487141 ], [ -51.659174231022213, -2.511477846317506 ], [ -52.657158296780381, -2.511477846317506 ], [ -52.657158296780381, -3.900339004487141 ] ] ] } },
{ "type": "Feature", "properties": { "fid": 1, "Title": "Garopaba dune field", "type": "dataset", "short_title": "Garopaba and Vila Nova ", "kind": "lidar point cloud (airborne)", "url": "https://doi.org/10.5069/G9DN430Z" }, "geometry": { "type": "Polygon", "coordinates": [ [ [ -48.643173551729653, -28.011378456078166 ], [ -48.628436991147943, -28.011378456078166 ], [ -48.628436991147943, -27.982614873014835 ], [ -48.643173551729653, -27.982614873014835 ], [ -48.643173551729653, -28.011378456078166 ] ] ] } },
{ "type": "Feature", "properties": { "fid": 100, "Title": "Devil's Cave", "type": "res_area", "short_title": "Devil's Cave", "kind": "Research" }, "geometry": { "type": "Polygon", "coordinates": [ [ [ -48.414538542976572, -24.66284982784634 ], [ -48.347951120979062, -24.66284982784634 ], [ -48.347951120979062, -24.621369138731662 ], [ -48.414538542976572, -24.621369138731662 ], [ -48.414538542976572, -24.66284982784634 ] ] ] } },
{ "type": "Feature", "properties": { "fid": 101, "Title": "Landslides - Itaóca", "type": "res_area", "short_title": "Itaóca", "kind": "PhD" }, "geometry": { "type": "Polygon", "coordinates": [ [ [ -48.890584030320085, -24.600410474722725 ], [ -48.790047939108675, -24.600410474722725 ], [ -48.790047939108675, -24.545503141546448 ], [ -48.890584030320085, -24.545503141546448 ], [ -48.890584030320085, -24.600410474722725 ] ] ] } },
{ "type": "Feature", "properties": { "fid": 102, "Title": "Landslides - urban area 1", "type": "res_area", "short_title": "CEU Paz", "kind": "MSc" }, "geometry": { "type": "Polygon", "coordinates": [ [ [ -46.693062655062526, -23.450849587931852 ], [ -46.683729499991514, -23.450849587931852 ], [ -46.683729499991514, -23.444982253601218 ], [ -46.693062655062526, -23.444982253601218 ], [ -46.693062655062526, -23.450849587931852 ] ] ] } },
{ "type": "Feature", "properties": { "fid": 103, "Title": "Landslides - Perus", "type": "res_area", "short_title": "Perus", "kind": "MSc" }, "geometry": { "type": "Polygon", "coordinates": [ [ [ -46.799193181319069, -23.459391335048785 ], [ -46.787403932817767, -23.459391335048785 ], [ -46.787403932817767, -23.448802843387529 ], [ -46.799193181319069, -23.448802843387529 ], [ -46.799193181319069, -23.459391335048785 ] ] ] } },
{ "type": "Feature", "properties": { "fid": 104, "Title": "Landslides - urban area 2", "type": "res_area", "short_title": "Santa Madalena", "kind": "MSc" }, "geometry": { "type": "Polygon", "coordinates": [ [ [ -46.511161646309318, -23.61664271719626 ], [ -46.507798162813913, -23.61664271719626 ], [ -46.507798162813913, -23.612842594890765 ], [ -46.511161646309318, -23.612842594890765 ], [ -46.511161646309318, -23.61664271719626 ] ] ] } },
{ "type": "Feature", "properties": { "fid": 105, "Title": "SfM-MVS - Jardim Garcia quarry", "type": "res_area", "short_title": "Jardim Garcia quarry", "kind": "PhD" }, "geometry": { "type": "Polygon", "coordinates": [ [ [ -47.119240917601665, -22.906374608481983 ], [ -47.110726460400635, -22.906374608481983 ], [ -47.110726460400635, -22.902212894601522 ], [ -47.119240917601665, -22.902212894601522 ], [ -47.119240917601665, -22.906374608481983 ] ] ] } },
{ "type": "Feature", "properties": { "fid": 106, "Title": "SfM-MVS - Clastic dikes", "type": "res_area", "short_title": "Clastic dikes", "kind": "PhD" }, "geometry": { "type": "Polygon", "coordinates": [ [ [ -47.458604805344635, -22.541753893210522 ], [ -47.449435389883547, -22.541753893210522 ], [ -47.449435389883547, -22.536459647379893 ], [ -47.458604805344635, -22.536459647379893 ], [ -47.458604805344635, -22.541753893210522 ] ] ] } },
{ "type": "Feature", "properties": { "fid": 125, "Title": "Apuí, Amazon", "type": "res_area", "short_title": "Apuí", "kind": "PhD", "url": "https://doi.org/10.1139/juvs-2019-0024", "description": "Remotely piloted aircraft imagery for automatic\r\ntree counting in forest restoration areas: a case\r\nstudy in the Amazon", "biblio": "canada journal", "spammers": "rafael" }, "geometry": { "type": "Polygon", "coordinates": [ [ [ -59.987579789697129, -7.209874610272282 ], [ -59.862585335798308, -7.209874610272282 ], [ -59.862585335798308, -7.016075869761841 ], [ -59.987579789697129, -7.016075869761841 ], [ -59.987579789697129, -7.209874610272282 ] ] ] } },
{ "type": "Feature", "properties": { "fid": 107, "Title": " Toque-Toque Grande", "type": "res_area", "short_title": "Toque-Toque Grande", "kind": "Research" }, "geometry": { "type": "Polygon", "coordinates": [ [ [ -45.516380697572679, -23.843960987000017 ], [ -45.488517682049547, -23.843960987000017 ], [ -45.488517682049547, -23.825840475437975 ], [ -45.516380697572679, -23.825840475437975 ], [ -45.516380697572679, -23.843960987000017 ] ] ] } },
{ "type": "Feature", "properties": { "fid": 108, "Title": "SfM-MVS - Guarujá beach monitoring ", "type": "res_area", "short_title": "Guarujá", "kind": "Post-doc" }, "geometry": { "type": "Polygon", "coordinates": [ [ [ -46.259985726339238, -24.003115841514319 ], [ -46.180226366260165, -24.003115841514319 ], [ -46.180226366260165, -23.971095660460676 ], [ -46.259985726339238, -23.971095660460676 ], [ -46.259985726339238, -24.003115841514319 ] ] ] } },
{ "type": "Feature", "properties": { "fid": 109, "Title": "SfM-MVS - Banzaê", "type": "res_area", "short_title": "Banzaê", "kind": "Research" }, "geometry": { "type": "Polygon", "coordinates": [ [ [ -38.73369674656383, -10.230162561114852 ], [ -38.666891005116355, -10.230162561114852 ], [ -38.666891005116355, -10.162483542047195 ], [ -38.73369674656383, -10.162483542047195 ], [ -38.73369674656383, -10.230162561114852 ] ] ] } },
{ "type": "Feature", "properties": { "fid": 110, "Title": "SfM-MVS - Xingu River Habitats", "type": "res_area", "short_title": "Xingu", "kind": "PhD" }, "geometry": { "type": "Polygon", "coordinates": [ [ [ -52.925040995146389, -4.249374923041386 ], [ -51.336840014256858, -4.249374923041386 ], [ -51.336840014256858, -2.418984936274469 ], [ -52.925040995146389, -2.418984936274469 ], [ -52.925040995146389, -4.249374923041386 ] ] ] } },
{ "type": "Feature", "properties": { "fid": 111, "Title": "RS - Rondônia laterites", "type": "res_area", "short_title": "Rondônia", "kind": "MSc" }, "geometry": { "type": "Polygon", "coordinates": [ [ [ -62.543321202379708, -12.002916221948452 ], [ -61.483744301609988, -12.002916221948452 ], [ -61.483744301609988, -11.490593324910495 ], [ -62.543321202379708, -11.490593324910495 ], [ -62.543321202379708, -12.002916221948452 ] ] ] } },
{ "type": "Feature", "properties": { "fid": 112, "Title": "SfM-MVS - Peruaçu caves and archaeological records", "type": "res_area", "short_title": "Peruaçu", "kind": "Research" }, "geometry": { "type": "Polygon", "coordinates": [ [ [ -44.333444229970567, -15.197657014749765 ], [ -44.16286399263133, -15.197657014749765 ], [ -44.16286399263133, -15.041049220052114 ], [ -44.333444229970567, -15.041049220052114 ], [ -44.333444229970567, -15.197657014749765 ] ] ] } },
{ "type": "Feature", "properties": { "fid": 113, "Title": "SfM-MVS - Vau Novo quarry", "type": "res_area", "short_title": "Vau Novo", "kind": "PhD" }, "geometry": { "type": "Polygon", "coordinates": [ [ [ -46.96023843183832, -23.428185303475821 ], [ -46.956399648737943, -23.428185303475821 ], [ -46.956399648737943, -23.424000848025294 ], [ -46.96023843183832, -23.424000848025294 ], [ -46.96023843183832, -23.428185303475821 ] ] ] } },
{ "type": "Feature", "properties": { "fid": 114, "Title": "Landslides - Deep Learning segmentation (area 3)", "type": "res_area", "short_title": "Rolante", "kind": "MSc" }, "geometry": { "type": "Polygon", "coordinates": [ [ [ -50.463813940501815, -29.535043476723747 ], [ -50.357810364884372, -29.535043476723747 ], [ -50.357810364884372, -29.461119930529289 ], [ -50.463813940501815, -29.461119930529289 ], [ -50.463813940501815, -29.535043476723747 ] ] ] } },
{ "type": "Feature", "properties": { "fid": 115, "Title": "Landslides - Deep Learning segmentation (areas 1,2)", "type": "res_area", "short_title": "Rio de Janeiro", "kind": "MSc" }, "geometry": { "type": "Polygon", "coordinates": [ [ [ -43.111117754144757, -22.427832351480614 ], [ -42.374747153849547, -22.427832351480614 ], [ -42.374747153849547, -22.139420533018182 ], [ -43.111117754144757, -22.139420533018182 ], [ -43.111117754144757, -22.427832351480614 ] ] ] } },
{ "type": "Feature", "properties": { "fid": 116, "Title": "Landslides - 2023 disaster", "type": "res_area", "short_title": "Vila Sahy", "kind": "PhD" }, "geometry": { "type": "Polygon", "coordinates": [ [ [ -45.769941600174604, -23.80699312158718 ], [ -45.576863475518842, -23.80699312158718 ], [ -45.576863475518842, -23.732698587799213 ], [ -45.769941600174604, -23.732698587799213 ], [ -45.769941600174604, -23.80699312158718 ] ] ] } },
{ "type": "Feature", "properties": { "fid": 117, "Title": "Landslides - Caraguatatuba", "type": "res_area", "short_title": "Caraguatatuba", "kind": "PhD + undergrad" }, "geometry": { "type": "Polygon", "coordinates": [ [ [ -45.585410634288486, -23.727000481941722 ], [ -45.296998815826051, -23.727000481941722 ], [ -45.296998815826051, -23.533264883563444 ], [ -45.585410634288486, -23.533264883563444 ], [ -45.585410634288486, -23.727000481941722 ] ] ] } },
{ "type": "Feature", "properties": { "fid": 118, "Title": "Landslides - São Sebastião", "type": "res_area", "short_title": "São Sebastião", "kind": "Research" }, "geometry": { "type": "Polygon", "coordinates": [ [ [ -45.854536556009343, -23.859371863691013 ], [ -45.37545735002341, -23.859371863691013 ], [ -45.37545735002341, -23.640213946904403 ], [ -45.854536556009343, -23.640213946904403 ], [ -45.854536556009343, -23.859371863691013 ] ] ] } },
{ "type": "Feature", "properties": { "fid": 119, "Title": "Landslides - Ilhabela", "type": "res_area", "short_title": "Ilhabela", "kind": "Research" }, "geometry": { "type": "Polygon", "coordinates": [ [ [ -45.477438833938159, -23.983853560443805 ], [ -44.984187415981459, -23.983853560443805 ], [ -44.984187415981459, -23.698071636961252 ], [ -45.477438833938159, -23.698071636961252 ], [ -45.477438833938159, -23.983853560443805 ] ] ] } },
{ "type": "Feature", "properties": { "fid": 120, "Title": "Geomorphology - Karstic", "type": "res_area", "short_title": "Ribeira valley ", "kind": "MSc" }, "geometry": { "type": "Polygon", "coordinates": [ [ [ -48.801187799399209, -24.672739945420727 ], [ -48.329559962567849, -24.672739945420727 ], [ -48.329559962567849, -24.496829190884799 ], [ -48.801187799399209, -24.496829190884799 ], [ -48.801187799399209, -24.672739945420727 ] ] ] } },
{ "type": "Feature", "properties": { "fid": 126, "Title": "Jirau, Amazon", "type": "res_area", "short_title": "Jirau", "kind": "PhD", "url": "https://doi.org/10.3390/rs14040830", "description": "Mapping Key Indicators of Forest Restoration in the Amazon\r\nUsing a Low-Cost Drone and Artificial Intelligence", "biblio": null, "spammers": null }, "geometry": { "type": "Polygon", "coordinates": [ [ [ -64.961699682194322, -9.651423387776664 ], [ -64.679028738177564, -9.651423387776664 ], [ -64.679028738177564, -9.39283394405151 ], [ -64.961699682194322, -9.39283394405151 ], [ -64.961699682194322, -9.651423387776664 ] ] ] } },
{ "type": "Feature", "properties": { "fid": 121, "Title": "SfM-MVS - Baleia hill", "type": "res_area", "short_title": "Baleia hill", "kind": "MSc" }, "geometry": { "type": "Polygon", "coordinates": [ [ [ -45.66760308774834, -23.786695423708213 ], [ -45.655894387585306, -23.786695423708213 ], [ -45.655894387585306, -23.774777299572488 ], [ -45.66760308774834, -23.774777299572488 ], [ -45.66760308774834, -23.786695423708213 ] ] ] } },
{ "type": "Feature", "properties": { "fid": 122, "Title": "SfM-MVS - Lagoinha landslide", "type": "res_area", "short_title": "Cunha", "kind": "PhD + undergrad" }, "geometry": { "type": "Polygon", "coordinates": [ [ [ -45.035984882137896, -23.072280265277808 ], [ -45.003833352747172, -23.072280265277808 ], [ -45.003833352747172, -23.039129677059137 ], [ -45.035984882137896, -23.039129677059137 ], [ -45.035984882137896, -23.072280265277808 ] ] ] } },
{ "type": "Feature", "properties": { "fid": 123, "Title": "Landslides and Debris Flow", "type": "res_area", "short_title": "Apiaí", "kind": "Post-doc" }, "geometry": { "type": "Polygon", "coordinates": [ [ [ -49.137953538442787, -24.721400023690748 ], [ -48.46954612946373, -24.721400023690748 ], [ -48.46954612946373, -24.208879577599671 ], [ -49.137953538442787, -24.208879577599671 ], [ -49.137953538442787, -24.721400023690748 ] ] ] } },
{ "type": "Feature", "properties": { "fid": 124, "Title": "USP campus", "type": "res_area", "short_title": "USP", "kind": "All levels", "url": null }, "geometry": { "type": "Polygon", "coordinates": [ [ [ -46.74509262892834, -23.573692503503089 ], [ -46.712136945032761, -23.573692503503089 ], [ -46.712136945032761, -23.547737767998903 ], [ -46.74509262892834, -23.547737767998903 ], [ -46.74509262892834, -23.573692503503089 ] ] ] } },
{ "type": "Feature", "properties": { "fid": 23, "Title": "Petrópolis - Landslide inventory", "type": "dataset", "short_title": "Petrópolis", "kind": "landslide inventory", "url": "https://github.com/SPAMLab/data_sharing" }, "geometry": { "type": "Polygon", "coordinates": [ [ [ -43.0864693712034, -22.413232469316959 ], [ -42.906077075865902, -22.413232469316959 ], [ -42.906077075865902, -22.193523904485133 ], [ -43.0864693712034, -22.193523904485133 ], [ -43.0864693712034, -22.413232469316959 ] ] ] } },
{ "type": "Feature", "properties": { "fid": 127, "Title": "Miguel Pereira", "type": "res_area", "short_title": "Miguel Pereira", "kind": "PhD", "url": "https://doi.org/10.3390/rs13122401", "description": "Forest Restoration Monitoring Protocol with a Low-Cost\r\nRemotely Piloted Aircraft: Lessons Learned from a Case Study\r\nin the Brazilian Atlantic Forest", "biblio": null, "spammers": null }, "geometry": { "type": "Polygon", "coordinates": [ [ [ -43.485951914438182, -22.502110425448709 ], [ -43.473786295638192, -22.502110425448709 ], [ -43.473786295638192, -22.493819207590786 ], [ -43.485951914438182, -22.493819207590786 ], [ -43.485951914438182, -22.502110425448709 ] ] ] } },
{ "type": "Feature", "properties": { "fid": 20, "Title": " Lagoinha Landslide", "type": "dataset", "short_title": "Cunha TLS", "kind": "lidar point cloud (terrestrial)", "url": "https://doi.org/10.5069/G90P0X57", "description": null, "biblio": null, "spammers": null }, "geometry": { "type": "Polygon", "coordinates": [ [ [ -45.008715471092593, -23.043513051558044 ], [ -45.007101307492675, -23.043513051558044 ], [ -45.007101307492675, -23.041969452510155 ], [ -45.008715471092593, -23.041969452510155 ], [ -45.008715471092593, -23.043513051558044 ] ] ] } },
{ "type": "Feature", "properties": { "fid": 21, "Title": " Lagoinha Landslide", "type": "dataset", "short_title": "Cunha SfM", "kind": "UAV images", "url": null, "description": null, "biblio": null, "spammers": null }, "geometry": { "type": "Polygon", "coordinates": [ [ [ -45.008772804772761, -23.044148132360888 ], [ -45.006991050395456, -23.044148132360888 ], [ -45.006991050395456, -23.041890067414592 ], [ -45.008772804772761, -23.041890067414592 ], [ -45.008772804772761, -23.044148132360888 ] ] ] } },
{ "type": "Feature", "properties": { "fid": 22, "Title": "Ponta da Varanda", "type": "dataset", "short_title": "Ponta da Varanda", "kind": "UAV images", "url": null, "description": null, "biblio": null, "spammers": null }, "geometry": { "type": "Polygon", "coordinates": [ [ [ -45.503551100896416, -23.837830295389335 ], [ -45.499432999055195, -23.837830295389335 ], [ -45.499432999055195, -23.834530852341377 ], [ -45.503551100896416, -23.834530852341377 ], [ -45.503551100896416, -23.837830295389335 ] ] ] } },
{ "type": "Feature", "properties": { "fid": 25, "Title": "SfM-MVS - Gropaba dunes SfM", "type": "dataset", "short_title": "Garopaba", "kind": "SfM-MVS point cloud", "url": "https://doi.org/10.5069/G9DV1H19", "description": null, "biblio": null, "spammers": null }, "geometry": { "type": "Polygon", "coordinates": [ [ [ -48.642923565673165, -28.011775689491547 ], [ -48.629152681625136, -28.011775689491547 ], [ -48.629152681625136, -27.993184996026706 ], [ -48.642923565673165, -27.993184996026706 ], [ -48.642923565673165, -28.011775689491547 ] ] ] } }
]
}
